JILIN-1 KUANFU 01       
1 45016U 20003A   26191.79808315  .00001721  00000+0  10723-3 0  9997
2 45016  97.5021 265.2933 0008872 213.2113 146.8561 15.10851969358899
JILIN-1 KUANFU-01B      
1 49003U 21061A   26191.83374191  .00001342  00000+0  86939-4 0  9999
2 49003  97.5197 267.5886 0006467 353.1040   7.0099 15.09791262276919
JILIN-1 KUANFU 01C      
1 52443U 22048A   26191.82501271  .00001884  00000+0  12090-3 0  9994
2 52443  97.5252 268.5684 0016989 236.0768 123.8846 15.09585360230766
JILIN-1 KUANFU 02A      
1 57696U 23127A   26191.84780957  .00002177  00000+0  13486-3 0  9996
2 57696  97.5569 285.3671 0009996 253.5604 106.4527 15.10791636159207
JILIN-01 KUANFU 02B 1   
1 61189U 24169A   26191.79020052  .00002601  00000+0  16832-3 0  9992
2 61189  97.5577 280.9492 0001898   0.9858 359.1374 15.09040587 99387
JILIN-01 KUANFU 02B 2   
1 61190U 24169B   26191.76970455  .00001959  00000+0  12790-3 0  9996
2 61190  97.5571 280.3145 0004821 299.6887  60.3862 15.09003009 99381
JILIN-01 KUANFU 02B 3   
1 61191U 24169C   26191.77875793  .00002177  00000+0  14136-3 0  9996
2 61191  97.5568 280.7562 0012653 221.4564 138.5706 15.09041622 99380
JILIN-01 KUANFU 02B 4   
1 61192U 24169D   26191.74748302  .00002147  00000+0  13949-3 0  9997
2 61192  97.5527 280.2539 0013620 178.4691 181.6582 15.09021856 99380
JILIN-01 KUANFU 02B 5   
1 61193U 24169E   26191.73461796  .00002712  00000+0  17501-3 0  9992
2 61193  97.5576 281.0351 0012806 203.1127 156.9527 15.09056121 99388
JILIN-01 KUANFU 02B 6   
1 61194U 24169F   26191.75812536  .00001698  00000+0  11113-3 0  9992
2 61194  97.5556 280.9521 0015245 237.3839 122.5919 15.09016496 99399
