{"fetched_at":"2026-07-11T06:35:32.955Z","source":"https://celestrak.org/NORAD/elements/gp.php?NAME=JILIN&FORMAT=JSON","constellation":"jilin-1-kuanfu","records":[{"OBJECT_NAME":"JILIN-1 KUANFU 01","OBJECT_ID":"2020-003A","EPOCH":"2026-07-10T19:09:14.384160","CLASSIFICATION_TYPE":"U","MEAN_MOTION":15.10851969,"ECCENTRICITY":0.0008872,"INCLINATION":97.5021,"RA_OF_ASC_NODE":265.2933,"ARG_OF_PERICENTER":213.2113,"MEAN_ANOMALY":146.8561,"EPHEMERIS_TYPE":0,"NORAD_CAT_ID":45016,"ELEMENT_SET_NO":999,"REV_AT_EPOCH":35889,"BSTAR":0.00010723,"MEAN_MOTION_DOT":0.00001721,"MEAN_MOTION_DDOT":0},{"OBJECT_NAME":"JILIN-1 KUANFU-01B","OBJECT_ID":"2021-061A","EPOCH":"2026-07-10T20:00:35.301024","CLASSIFICATION_TYPE":"U","MEAN_MOTION":15.09791262,"ECCENTRICITY":0.0006467,"INCLINATION":97.5197,"RA_OF_ASC_NODE":267.5886,"ARG_OF_PERICENTER":353.104,"MEAN_ANOMALY":7.0099,"EPHEMERIS_TYPE":0,"NORAD_CAT_ID":49003,"ELEMENT_SET_NO":999,"REV_AT_EPOCH":27691,"BSTAR":0.000086939,"MEAN_MOTION_DOT":0.00001342,"MEAN_MOTION_DDOT":0},{"OBJECT_NAME":"JILIN-1 KUANFU 01C","OBJECT_ID":"2022-048A","EPOCH":"2026-07-10T19:48:01.098144","CLASSIFICATION_TYPE":"U","MEAN_MOTION":15.0958536,"ECCENTRICITY":0.0016989,"INCLINATION":97.5252,"RA_OF_ASC_NODE":268.5684,"ARG_OF_PERICENTER":236.0768,"MEAN_ANOMALY":123.8846,"EPHEMERIS_TYPE":0,"NORAD_CAT_ID":52443,"ELEMENT_SET_NO":999,"REV_AT_EPOCH":23076,"BSTAR":0.0001209,"MEAN_MOTION_DOT":0.00001884,"MEAN_MOTION_DDOT":0},{"OBJECT_NAME":"JILIN-1 KUANFU 02A","OBJECT_ID":"2023-127A","EPOCH":"2026-07-10T20:20:50.746848","CLASSIFICATION_TYPE":"U","MEAN_MOTION":15.10791636,"ECCENTRICITY":0.0009996,"INCLINATION":97.5569,"RA_OF_ASC_NODE":285.3671,"ARG_OF_PERICENTER":253.5604,"MEAN_ANOMALY":106.4527,"EPHEMERIS_TYPE":0,"NORAD_CAT_ID":57696,"ELEMENT_SET_NO":999,"REV_AT_EPOCH":15920,"BSTAR":0.00013486,"MEAN_MOTION_DOT":0.00002177,"MEAN_MOTION_DDOT":0},{"OBJECT_NAME":"JILIN-01 KUANFU 02B 1","OBJECT_ID":"2024-169A","EPOCH":"2026-07-10T18:57:53.324928","CLASSIFICATION_TYPE":"U","MEAN_MOTION":15.09040587,"ECCENTRICITY":0.0001898,"INCLINATION":97.5577,"RA_OF_ASC_NODE":280.9492,"ARG_OF_PERICENTER":0.9858,"MEAN_ANOMALY":359.1374,"EPHEMERIS_TYPE":0,"NORAD_CAT_ID":61189,"ELEMENT_SET_NO":999,"REV_AT_EPOCH":9938,"BSTAR":0.00016832,"MEAN_MOTION_DOT":0.00002601,"MEAN_MOTION_DDOT":0},{"OBJECT_NAME":"JILIN-01 KUANFU 02B 2","OBJECT_ID":"2024-169B","EPOCH":"2026-07-10T18:28:22.473120","CLASSIFICATION_TYPE":"U","MEAN_MOTION":15.09003009,"ECCENTRICITY":0.0004821,"INCLINATION":97.5571,"RA_OF_ASC_NODE":280.3145,"ARG_OF_PERICENTER":299.6887,"MEAN_ANOMALY":60.3862,"EPHEMERIS_TYPE":0,"NORAD_CAT_ID":61190,"ELEMENT_SET_NO":999,"REV_AT_EPOCH":9938,"BSTAR":0.0001279,"MEAN_MOTION_DOT":0.00001959,"MEAN_MOTION_DDOT":0},{"OBJECT_NAME":"JILIN-01 KUANFU 02B 3","OBJECT_ID":"2024-169C","EPOCH":"2026-07-10T18:41:24.685152","CLASSIFICATION_TYPE":"U","MEAN_MOTION":15.09041622,"ECCENTRICITY":0.0012653,"INCLINATION":97.5568,"RA_OF_ASC_NODE":280.7562,"ARG_OF_PERICENTER":221.4564,"MEAN_ANOMALY":138.5706,"EPHEMERIS_TYPE":0,"NORAD_CAT_ID":61191,"ELEMENT_SET_NO":999,"REV_AT_EPOCH":9938,"BSTAR":0.00014136,"MEAN_MOTION_DOT":0.00002177,"MEAN_MOTION_DDOT":0},{"OBJECT_NAME":"JILIN-01 KUANFU 02B 4","OBJECT_ID":"2024-169D","EPOCH":"2026-07-10T17:56:22.532928","CLASSIFICATION_TYPE":"U","MEAN_MOTION":15.09021856,"ECCENTRICITY":0.001362,"INCLINATION":97.5527,"RA_OF_ASC_NODE":280.2539,"ARG_OF_PERICENTER":178.4691,"MEAN_ANOMALY":181.6582,"EPHEMERIS_TYPE":0,"NORAD_CAT_ID":61192,"ELEMENT_SET_NO":999,"REV_AT_EPOCH":9938,"BSTAR":0.00013949,"MEAN_MOTION_DOT":0.00002147,"MEAN_MOTION_DDOT":0},{"OBJECT_NAME":"JILIN-01 KUANFU 02B 5","OBJECT_ID":"2024-169E","EPOCH":"2026-07-10T17:37:50.991744","CLASSIFICATION_TYPE":"U","MEAN_MOTION":15.09056121,"ECCENTRICITY":0.0012806,"INCLINATION":97.5576,"RA_OF_ASC_NODE":281.0351,"ARG_OF_PERICENTER":203.1127,"MEAN_ANOMALY":156.9527,"EPHEMERIS_TYPE":0,"NORAD_CAT_ID":61193,"ELEMENT_SET_NO":999,"REV_AT_EPOCH":9938,"BSTAR":0.00017501,"MEAN_MOTION_DOT":0.00002712,"MEAN_MOTION_DDOT":0},{"OBJECT_NAME":"JILIN-01 KUANFU 02B 6","OBJECT_ID":"2024-169F","EPOCH":"2026-07-10T18:11:42.031104","CLASSIFICATION_TYPE":"U","MEAN_MOTION":15.09016496,"ECCENTRICITY":0.0015245,"INCLINATION":97.5556,"RA_OF_ASC_NODE":280.9521,"ARG_OF_PERICENTER":237.3839,"MEAN_ANOMALY":122.5919,"EPHEMERIS_TYPE":0,"NORAD_CAT_ID":61194,"ELEMENT_SET_NO":999,"REV_AT_EPOCH":9939,"BSTAR":0.00011113,"MEAN_MOTION_DOT":0.00001698,"MEAN_MOTION_DDOT":0}]}
